{"type": "FeatureCollection", "features": [ {"type": "Feature", "properties": {"norad_id": 39122, "name": "EUTELSAT 117 WEST A", "group": "eutelsat", "lat": 0.014533193168752505, "lon": 22.04570797812216, "alt_km": 35792.25102010851, "timestamp": "2025-12-12T03:50:52.088084+00:00", "meta": {"OBJECT_NAME": "EUTELSAT 117 WEST A", "OBJECT_ID": "2013-012A", "EPOCH": "2025-12-11T11:14:33.966816", "MEAN_MOTION": 1.00271332, "ECCENTRICITY": 0.00029746, "INCLINATION": 0.0138, "RA_OF_ASC_NODE": 4.2554, "ARG_OF_PERICENTER": 258.9766, "MEAN_ANOMALY": 229.0323, "EPHEMERIS_TYPE": 0, "CLASSIFICATION_TYPE": "U", "NORAD_CAT_ID": 39122, "ELEMENT_SET_NO": 999, "REV_AT_EPOCH": 4655, "BSTAR": 0, "MEAN_MOTION_DOT": -6e-08, "MEAN_MOTION_DDOT": 0}, "tle": {"line1": "1 39122U 13012A   25345.46844869 -.00000006  00000+0  00000+0 0  9997", "line2": "2 39122   0.0138   4.2554 0002974 258.9766 229.0323  1.00271332 46556"}}, "geometry": {"type": "Point", "coordinates": [22.04570797812216, 0.014533193168752505]}}, {"type": "Feature", "properties": {"norad_id": 39163, "name": "EUTELSAT 7B", "group": "eutelsat", "lat": 0.062374331727258245, "lon": 145.80764404527469, "alt_km": 35804.931750525546, "timestamp": "2025-12-12T03:50:52.088096+00:00", "meta": {"OBJECT_NAME": "EUTELSAT 7B", "OBJECT_ID": "2013-022A", "EPOCH": "2025-12-11T13:32:37.377600", "MEAN_MOTION": 1.00272561, "ECCENTRICITY": 0.00046066, "INCLINATION": 0.0725, "RA_OF_ASC_NODE": 19.1801, "ARG_OF_PERICENTER": 297.3227, "MEAN_ANOMALY": 334.1679, "EPHEMERIS_TYPE": 0, "CLASSIFICATION_TYPE": "U", "NORAD_CAT_ID": 39163, "ELEMENT_SET_NO": 999, "REV_AT_EPOCH": 4607, "BSTAR": 0, "MEAN_MOTION_DOT": 5.5e-07, "MEAN_MOTION_DDOT": 0}, "tle": {"line1": "1 39163U 13022A   25345.56432150  .00000055  00000+0  00000+0 0  9993", "line2": "2 39163   0.0725  19.1801 0004606 297.3227 334.1679  1.00272561 46070"}}, "geometry": {"type": "Point", "coordinates": [145.80764404527469, 0.062374331727258245]}}, {"type": "Feature", "properties": {"norad_id": 39612, "name": "EXPRESS-AT1", "group": "eutelsat", "lat": -0.026569845710509177, "lon": -165.1882264828528, "alt_km": 35784.48842891031, "timestamp": "2025-12-12T03:50:52.088109+00:00", "meta": {"OBJECT_NAME": "EXPRESS-AT1", "OBJECT_ID": "2014-010A", "EPOCH": "2025-12-11T15:29:26.191392", "MEAN_MOTION": 1.00271326, "ECCENTRICITY": 4.173e-05, "INCLINATION": 0.0163, "RA_OF_ASC_NODE": 298.4962, "ARG_OF_PERICENTER": 273.1745, "MEAN_ANOMALY": 157.2829, "EPHEMERIS_TYPE": 0, "CLASSIFICATION_TYPE": "U", "NORAD_CAT_ID": 39612, "ELEMENT_SET_NO": 999, "REV_AT_EPOCH": 4293, "BSTAR": 0, "MEAN_MOTION_DOT": 8.6e-07, "MEAN_MOTION_DDOT": 0}, "tle": {"line1": "1 39612U 14010A   25345.64544203  .00000086  00000+0  00000+0 0  9996", "line2": "2 39612   0.0163 298.4962 0000417 273.1745 157.2829  1.00271326 42938"}}, "geometry": {"type": "Point", "coordinates": [-165.1882264828528, -0.026569845710509177]}}, {"type": "Feature", "properties": {"norad_id": 39613, "name": "EXPRESS-AT2", "group": "eutelsat", "lat": -0.02364065119149444, "lon": -81.3115409167519, "alt_km": 35780.11106629854, "timestamp": "2025-12-12T03:50:52.088121+00:00", "meta": {"OBJECT_NAME": "EXPRESS-AT2", "OBJECT_ID": "2014-010B", "EPOCH": "2025-12-11T14:10:33.743712", "MEAN_MOTION": 1.00271711, "ECCENTRICITY": 0.00014336, "INCLINATION": 0.0193, "RA_OF_ASC_NODE": 312.623, "ARG_OF_PERICENTER": 324.9956, "MEAN_ANOMALY": 155.4371, "EPHEMERIS_TYPE": 0, "CLASSIFICATION_TYPE": "U", "NORAD_CAT_ID": 39613, "ELEMENT_SET_NO": 999, "REV_AT_EPOCH": 4261, "BSTAR": 0, "MEAN_MOTION_DOT": -2.74e-06, "MEAN_MOTION_DDOT": 0}, "tle": {"line1": "1 39613U 14010B   25345.59066833 -.00000274  00000+0  00000+0 0  9999", "line2": "2 39613   0.0193 312.6230 0001433 324.9956 155.4371  1.00271711 42612"}}, "geometry": {"type": "Point", "coordinates": [-81.3115409167519, -0.02364065119149444]}}, {"type": "Feature", "properties": {"norad_id": 39773, "name": "EUTELSAT 3B", "group": "eutelsat", "lat": 0.029370717991058923, "lon": 141.87919335874977, "alt_km": 35784.87825277221, "timestamp": "2025-12-12T03:50:52.088141+00:00", "meta": {"OBJECT_NAME": "EUTELSAT 3B", "OBJECT_ID": "2014-030A", "EPOCH": "2025-12-10T23:49:46.953984", "MEAN_MOTION": 1.00272013, "ECCENTRICITY": 0.00046411, "INCLINATION": 0.0617, "RA_OF_ASC_NODE": 345.4375, "ARG_OF_PERICENTER": 243.1309, "MEAN_ANOMALY": 211.9454, "EPHEMERIS_TYPE": 0, "CLASSIFICATION_TYPE": "U", "NORAD_CAT_ID": 39773, "ELEMENT_SET_NO": 999, "REV_AT_EPOCH": 4218, "BSTAR": 0, "MEAN_MOTION_DOT": 2.5e-07, "MEAN_MOTION_DDOT": 0}, "tle": {"line1": "1 39773U 14030A   25344.99290456  .00000025  00000+0  00000+0 0  9994", "line2": "2 39773   0.0617 345.4375 0004641 243.1309 211.9454  1.00272013 42180"}}, "geometry": {"type": "Point", "coordinates": [141.87919335874977, 0.029370717991058923]}}, {"type": "Feature", "properties": {"norad_id": 40425, "name": "EUTELSAT 115 WEST B", "group": "eutelsat", "lat": -0.006671221210322952, "lon": 23.905296620109027, "alt_km": 35787.79731974336, "timestamp": "2025-12-12T03:50:52.088164+00:00", "meta": {"OBJECT_NAME": "EUTELSAT 115 WEST B", "OBJECT_ID": "2015-010B", "EPOCH": "2025-12-10T23:16:05.182752", "MEAN_MOTION": 1.00269045, "ECCENTRICITY": 3.113e-05, "INCLINATION": 0.0085, "RA_OF_ASC_NODE": 151.2991, "ARG_OF_PERICENTER": 11.6564, "MEAN_ANOMALY": 151.0992, "EPHEMERIS_TYPE": 0, "CLASSIFICATION_TYPE": "U", "NORAD_CAT_ID": 40425, "ELEMENT_SET_NO": 999, "REV_AT_EPOCH": 3950, "BSTAR": 0, "MEAN_MOTION_DOT": -1.9e-07, "MEAN_MOTION_DDOT": 0}, "tle": {"line1": "1 40425U 15010B   25344.96950443 -.00000019  00000+0  00000+0 0  9999", "line2": "2 40425   0.0085 151.2991 0000311  11.6564 151.0992  1.00269045 39507"}}, "geometry": {"type": "Point", "coordinates": [23.905296620109027, -0.006671221210322952]}}, {"type": "Feature", "properties": {"norad_id": 40875, "name": "EUTELSAT 8 WEST B", "group": "eutelsat", "lat": 0.06164603549768707, "lon": 130.8011437468579, "alt_km": 35797.695493121144, "timestamp": "2025-12-12T03:50:52.088177+00:00", "meta": {"OBJECT_NAME": "EUTELSAT 8 WEST B", "OBJECT_ID": "2015-039B", "EPOCH": "2025-12-11T13:28:07.807872", "MEAN_MOTION": 1.002716, "ECCENTRICITY": 0.00041988, "INCLINATION": 0.065, "RA_OF_ASC_NODE": 5.4602, "ARG_OF_PERICENTER": 256.0204, "MEAN_ANOMALY": 13.0875, "EPHEMERIS_TYPE": 0, "CLASSIFICATION_TYPE": "U", "NORAD_CAT_ID": 40875, "ELEMENT_SET_NO": 999, "REV_AT_EPOCH": 3777, "BSTAR": 0, "MEAN_MOTION_DOT": -5.8e-07, "MEAN_MOTION_DDOT": 0}, "tle": {"line1": "1 40875U 15039B   25345.56120148 -.00000058  00000+0  00000+0 0  9990", "line2": "2 40875   0.0650   5.4602 0004198 256.0204  13.0875  1.00271600 37770"}}, "geometry": {"type": "Point", "coordinates": [130.8011437468579, 0.06164603549768707]}}, {"type": "Feature", "properties": {"norad_id": 41310, "name": "EUTELSAT 9B", "group": "eutelsat", "lat": 0.04264850469090463, "lon": 147.7990147912763, "alt_km": 35795.3248707587, "timestamp": "2025-12-12T03:50:52.088189+00:00", "meta": {"OBJECT_NAME": "EUTELSAT 9B", "OBJECT_ID": "2016-005A", "EPOCH": "2025-12-11T04:59:33.728928", "MEAN_MOTION": 1.00273032, "ECCENTRICITY": 0.00047985, "INCLINATION": 0.0412, "RA_OF_ASC_NODE": 60.4981, "ARG_OF_PERICENTER": 205.8314, "MEAN_ANOMALY": 257.753, "EPHEMERIS_TYPE": 0, "CLASSIFICATION_TYPE": "U", "NORAD_CAT_ID": 41310, "ELEMENT_SET_NO": 999, "REV_AT_EPOCH": 3623, "BSTAR": 0, "MEAN_MOTION_DOT": 6.8e-07, "MEAN_MOTION_DDOT": 0}, "tle": {"line1": "1 41310U 16005A   25345.20802927  .00000068  00000+0  00000+0 0  9992", "line2": "2 41310   0.0412  60.4981 0004798 205.8314 257.7530  1.00273032 36238"}}, "geometry": {"type": "Point", "coordinates": [147.7990147912763, 0.04264850469090463]}}, {"type": "Feature", "properties": {"norad_id": 41382, "name": "EUTELSAT 65 WEST A", "group": "eutelsat", "lat": 0.06272979885266171, "lon": 73.63090203727982, "alt_km": 35796.53537130577, "timestamp": "2025-12-12T03:50:52.088202+00:00", "meta": {"OBJECT_NAME": "EUTELSAT 65 WEST A", "OBJECT_ID": "2016-014A", "EPOCH": "2025-12-11T13:12:01.849824", "MEAN_MOTION": 1.00272242, "ECCENTRICITY": 0.00025609, "INCLINATION": 0.0513, "RA_OF_ASC_NODE": 11.3121, "ARG_OF_PERICENTER": 256.1627, "MEAN_ANOMALY": 305.8425, "EPHEMERIS_TYPE": 0, "CLASSIFICATION_TYPE": "U", "NORAD_CAT_ID": 41382, "ELEMENT_SET_NO": 999, "REV_AT_EPOCH": 3565, "BSTAR": 0, "MEAN_MOTION_DOT": -2.69e-06, "MEAN_MOTION_DDOT": 0}, "tle": {"line1": "1 41382U 16014A   25345.55002141 -.00000269  00000+0  00000+0 0  9993", "line2": "2 41382   0.0513  11.3121 0002560 256.1627 305.8425  1.00272242 35656"}}, "geometry": {"type": "Point", "coordinates": [73.63090203727982, 0.06272979885266171]}}, {"type": "Feature", "properties": {"norad_id": 41589, "name": "EUTELSAT 117 WEST B", "group": "eutelsat", "lat": -0.01235983009127046, "lon": 21.823486602251428, "alt_km": 35786.56295768161, "timestamp": "2025-12-12T03:50:52.088213+00:00", "meta": {"OBJECT_NAME": "EUTELSAT 117 WEST B", "OBJECT_ID": "2016-038B", "EPOCH": "2025-12-10T23:15:27.743040", "MEAN_MOTION": 1.00269754, "ECCENTRICITY": 3.232e-05, "INCLINATION": 0.0411, "RA_OF_ASC_NODE": 158.7318, "ARG_OF_PERICENTER": 311.552, "MEAN_ANOMALY": 201.5309, "EPHEMERIS_TYPE": 0, "CLASSIFICATION_TYPE": "U", "NORAD_CAT_ID": 41589, "ELEMENT_SET_NO": 999, "REV_AT_EPOCH": 3477, "BSTAR": 0, "MEAN_MOTION_DOT": -6e-08, "MEAN_MOTION_DDOT": 0}, "tle": {"line1": "1 41589U 16038B   25344.96907110 -.00000006  00000+0  00000+0 0  9991", "line2": "2 41589   0.0411 158.7318 0000323 311.5520 201.5309  1.00269754 34778"}}, "geometry": {"type": "Point", "coordinates": [21.823486602251428, -0.01235983009127046]}}]}